ONEWEB-0393             
1 50473U 21132E   23246.31691194 -.00000007  00000+0 -52327-4 0  9990
2 50473  87.9209 208.0745 0002151  73.9346 286.2023 13.17650014 84062
ONEWEB-0394             
1 50474U 21132F   23246.51809342  .00000151  00000+0  35059-3 0  9999
2 50474  87.9294 177.8057 0001844  74.4239 285.7096 13.18687247 87472
ONEWEB-0395             
1 50475U 21132G   23246.36718964 -.00000131  00000+0 -40535-3 0  9997
2 50475  87.8920 223.2694 0002067  75.9087 284.2271 13.11418018 82314
ONEWEB-0396             
1 50476U 21132H   23246.51176184  .00000055  00000+0  10798-3 0  9998
2 50476  87.9295 177.7991 0001752  75.6341 284.4986 13.18684966 87510
ONEWEB-0397             
1 50477U 21132J   23246.52651368  .00000118  00000+0  26752-3 0  9999
2 50477  87.9294 177.7970 0001694  74.4691 285.6628 13.18684442 87499
ONEWEB-0398             
1 50478U 21132K   23246.41169817 -.00000066  00000+0 -22065-3 0  9998
2 50478  87.8909 223.2549 0002344  71.2866 288.8516 13.11414366 82218
ONEWEB-0399             
1 50479U 21132L   23246.39897361  .00000439  00000+0  12014-2 0  9992
2 50479  87.8915 223.2687 0001885  92.7498 267.3846 13.11417254 82203
ONEWEB-0400             
1 50480U 21132M   23246.50544103  .00000071  00000+0  14714-3 0  9992
2 50480  87.9221 177.8429 0002194  72.2538 287.8833 13.18685276 87482
